[{"Latitude": "-38.718949", "Longitude": "143.725959", "Post_Code": "3233", "Practice_Name": "Petticoat Creek Country Practice", "State": "VIC", "Town": "Petticoat Creek"}, {"Latitude": "-37.842988", "Longitude": "144.892631", "Post_Code": "3409", "Practice_Name": "Douglas Health Clinic", "State": "VIC", "Town": "Douglas"}, {"Latitude": "-34.181714", "Longitude": "142.163072", "Post_Code": "3500", "Practice_Name": "Mildura Family Clinic", "State": "VIC", "Town": "Mildura"}, {"Latitude": "-37.203001", "Longitude": "145.050171", "Post_Code": "3658", "Practice_Name": "Broadford Doctors", "State": "VIC", "Town": "Broadford"}, {"Latitude": "-38.063056", "Longitude": "145.40958", "Post_Code": "3809", "Practice_Name": "Officer Practice", "State": "VIC", "Town": "Officer"}, {"Latitude": "-37.733238", "Longitude": "148.089423", "Post_Code": "3887", "Practice_Name": "Nowa Nowa Clinic", "State": "VIC", "Town": "Nowa Nowa"}, {"Latitude": "-38.651487", "Longitude": "146.675098", "Post_Code": "3971", "Practice_Name": "Langsborough Clinic", "State": "VIC", "Town": "Langsborough"}, {"Latitude": "-37.8032", "Longitude": "145.0348", "Post_Code": "3101", "Practice_Name": "Kew Family Clinic", "State": "VIC", "Town": "Kew"}, {"Latitude": "-37.669323", "Longitude": "145.123111", "Post_Code": "3090", "Practice_Name": "Plenty Mobile Clinic", "State": "VIC", "Town": "Plenty"}]